AMOS 3                  
1 32794U 08022A   09169.91552743 -.00000017  00000-0  10000-3 0  1612
2 32794   0.0067 274.9733 0000540 129.7638 188.1735  1.00273153  4201
GALAXY 18 (G-18)        
1 32951U 08024A   09169.40482983  .00000042  00000-0  10000-3 0  1786
2 32951   0.0089 318.1324 0002804 123.2951 208.0885  1.00273073  3960
CHINASAT 9              
1 33051U 08028A   09171.75145841 -.00000236  00000-0  10000-3 0  3162
2 33051   0.0307  82.4256 0005841   1.2238 188.1716  1.00271578  3809
SKYNET 5C               
1 33055U 08030A   09167.96263101 -.00000120  00000-0  10000-3 0  1459
2 33055   0.3655 178.8730 0003680 267.8194 147.4363  1.00271953  3767
TURKSAT 3A              
1 33056U 08030B   09170.62401005  .00000161  00000-0  10000-3 0  1852
2 33056   0.0192  48.7069 0005831  44.1426  81.7820  1.00275212  3844
COSMOS 2440             
1 33108U 08033A   09171.76473028 -.00000124  00000-0  10000-3 0  2977
2 33108   1.4697 288.4489 0003750 106.3623 229.7245  1.00269112  3582
PROTOSTAR 1             
1 33153U 08034A   09169.86837610 -.00000276  00000-0  00000+0 0  2284
2 33153   0.0730 103.1588 0001802 350.1776 224.8439  1.00270117  3502
BADR-6                  
1 33154U 08034B   09169.75615829  .00000162  00000-0  10000-3 0  1792
2 33154   0.0457 325.7014 0003100 124.2173 115.4025  1.00274789  3526
ECHOSTAR 11             
1 33207U 08035A   09172.13367105 -.00000046  00000-0  10000-3 0  2129
2 33207   0.0134 338.7056 0003098 111.7185 117.1661  1.00272255  3438
SUPERBIRD 7             
1 33274U 08038A   09169.43648875 -.00000236  00000-0  10000-3 0  2166
2 33274   0.6189  82.3177 0005380 359.2736 126.0507  1.00269366  3135
AMC-21                  
1 33275U 08038B   09172.16218546  .00000046  00000-0  10000-3 0  1830
2 33275   0.0084 251.3960 0002395 193.5435 118.0424  1.00273540  3251
INMARSAT 4-F3           
1 33278U 08039A   09170.62038391 -.00000126  00000-0  10000-3 0  2360
2 33278   3.0208 332.5409 0003593 132.3028 288.8385  1.00272451  3101
NIMIQ 4                 
1 33373U 08044A   09168.37168795 -.00000203  00000-0  00000+0 0  1341
2 33373   0.0045 338.6827 0001808 104.8150 234.0669  1.00270600  2753
GALAXY 19 (G-19)        
1 33376U 08045A   09169.42925553 -.00000121  00000-0  10000-3 0  1552
2 33376   0.0084 345.0617 0003536  98.1502 241.0341  1.00271422  2718
VENESAT-1               
1 33414U 08055A   09172.21764634 -.00000228  00000-0  00000+0 0  1663
2 33414   0.0054 246.2166 0001446 185.6548 198.0357  1.00272613  2440
ASTRA 1M                
1 33436U 08057A   09169.66636753  .00000000  00000-0  10000-3 0  1093
2 33436   0.0516 164.5963 0007396 307.2288  54.2659  1.00269530  2292
CIEL-2                  
1 33453U 08063A   09169.68075310  .00000075  00000-0  10000-3 0  1459
2 33453   0.0128 263.4070 0003135 187.0158 292.8499  1.00273442  1934
HOT BIRD 9              
1 33459U 08065A   09169.81645553  .00000105  00000-0  10000-3 0  1111
2 33459   0.0574  79.9754 0003438   1.8988 132.2903  1.00275109  2002
EUTELSAT W2M            
1 33460U 08065B   09169.26456709  .00000038  00000-0  10000-3 0  1053
2 33460   0.0639  67.4857 0003103  18.6730 278.8008  1.00275286  1864
FENGYUN 2E              
1 33463U 08066A   09171.68719177 -.00000344  00000-0  00000+0 0  1558
2 33463   2.2285 285.3414 0002768 300.1883  54.3683  1.00280717  1874
EXPRESS-AM 44           
1 33595U 09007A   09170.10743551 -.00000072  00000-0  10000-3 0  1204
2 33595   0.0535  97.5643 0000919 124.7964  72.7839  1.00271855  1327
EXPRESS-MD1             
1 33596U 09007B   09171.64049530 -.00000124  00000-0  00000+0 0  1125
2 33596   0.0220 251.8698 0002339 192.2567 135.5267  1.00271361  1371
NSS-9                   
1 33749U 09008A   09171.58245601  .00000084  00000-0  10000-3 0   764
2 33749   0.0095 350.9957 0000910  61.3970 249.1825  1.00273512  1335
HOT BIRD 10             
1 33750U 09008B   09171.92652551 -.00000049  00000-0  10000-3 0  1022
2 33750   0.0517 347.7298 0004266 105.1941 142.5942  1.00272281  1373
TELSTAR 11N             
1 34111U 09009A   09168.37515082 -.00000233  00000-0  10000-3 0   616
2 34111   0.0102   5.1588 0002572  79.0657 279.0422  1.00271312  1163
RADUGA-1 8              
1 34264U 09010A   09171.72090560  .00000130  00000-0  00000+0 0   811
2 34264   1.2656 223.4337 0039245 237.7785  85.0022  1.00287694  1125
EUTELSAT W2A            
1 34710U 09016A   09167.93477972  .00000086  00000-0  10000-3 0   531
2 34710   0.0163 346.7000 0007375   9.6768 255.5535  1.00272503   803
BEIDOU G2               
1 34779U 09018A   09171.67396976 -.00000158  00000-0  10000-3 0   472
2 34779   0.8247 270.8863 0001789 152.4362 172.2251  1.00262258   865
SICRAL 1B               
1 34810U 09020A   09171.95638836  .00000091  00000-0  10000-3 0   369
2 34810   0.0583  70.9002 0002900  87.7779 106.7097  1.00272532   707
PROTOSTAR 2             
1 34941U 09027A   09169.91012272 -.00000324  00000-0  10000-3 0   296
2 34941   0.0423 158.5223 0000425 120.6893  63.0209  1.00267022   389
